[{"OBJECT_NAME":"STARLINK-3910","OBJECT_ID":"2022-051BC","EPOCH":"2026-03-09T12:49:30.281664","MEAN_MOTION":15.08841511,"ECCENTRICITY":0.00011961,"INCLINATION":53.2169,"RA_OF_ASC_NODE":119.8187,"ARG_OF_PERICENTER":94.3692,"MEAN_ANOMALY":265.7437,"EPHEMERIS_TYPE":0,"CLASSIFICATION_TYPE":"U","NORAD_CAT_ID":52586,"ELEMENT_SET_NO":999,"REV_AT_EPOCH":21156,"BSTAR":9.4620466e-5,"MEAN_MOTION_DOT":1.218e-5,"MEAN_MOTION_DDOT":0},{"OBJECT_NAME":"DMSP 5D-2 F11 DEB","OBJECT_ID":"1991-082AJ","EPOCH":"2026-03-09T06:39:32.486112","MEAN_MOTION":15.08629375,"ECCENTRICITY":0.00070318,"INCLINATION":98.5181,"RA_OF_ASC_NODE":189.4283,"ARG_OF_PERICENTER":237.8685,"MEAN_ANOMALY":152.6153,"EPHEMERIS_TYPE":0,"CLASSIFICATION_TYPE":"U","NORAD_CAT_ID":28321,"ELEMENT_SET_NO":999,"REV_AT_EPOCH":14288,"BSTAR":0.0082823802,"MEAN_MOTION_DOT":0.00131946,"MEAN_MOTION_DDOT":0}]
